[{"OBJECT_NAME":"BUGSAT-1 (TITA)","OBJECT_ID":"2014-033E","EPOCH":"2026-03-09T23:14:58.322976","MEAN_MOTION":15.14502987,"ECCENTRICITY":0.00292569,"INCLINATION":98.0428,"RA_OF_ASC_NODE":155.8085,"ARG_OF_PERICENTER":157.4521,"MEAN_ANOMALY":202.8002,"EPHEMERIS_TYPE":0,"CLASSIFICATION_TYPE":"U","NORAD_CAT_ID":40014,"ELEMENT_SET_NO":999,"REV_AT_EPOCH":64081,"BSTAR":0.00030961592,"MEAN_MOTION_DOT":5.686e-5,"MEAN_MOTION_DDOT":0},{"OBJECT_NAME":"STARLINK-3231","OBJECT_ID":"2021-115W","EPOCH":"2026-03-09T11:53:53.040192","MEAN_MOTION":15.08847702,"ECCENTRICITY":0.00013925,"INCLINATION":53.2174,"RA_OF_ASC_NODE":149.886,"ARG_OF_PERICENTER":84.1838,"MEAN_ANOMALY":275.9313,"EPHEMERIS_TYPE":0,"CLASSIFICATION_TYPE":"U","NORAD_CAT_ID":49744,"ELEMENT_SET_NO":999,"REV_AT_EPOCH":23550,"BSTAR":-0.00016926299,"MEAN_MOTION_DOT":-2.981e-5,"MEAN_MOTION_DDOT":0}]
